STARLINK-5628           
1 55466U 23015T   26068.39732500 -.00000442  00000+0 -17660-4 0  9993
2 55466  43.0067 327.2640 0001418 267.1501  92.9179 15.02533041170715
STARLING 4              
1 57386U 23100A   26066.02836485 -.00000009  00000+0  55676-5 0  9994
2 57386  99.5115  59.9711 0007803  83.0949 277.1159 15.06148396144525
